NORAD_CAT_ID,OBJECT_NAME,OBJECT_TYPE,EPOCH,MEAN_MOTION,ECCENTRICITY,INCLINATION,RA_OF_ASC_NODE,ARG_OF_PERICENTER,MEAN_ANOMALY,BSTAR,MEAN_MOTION_DOT,MEAN_MOTION_DDOT,TLE_LINE0,TLE_LINE1,TLE_LINE2,SEMIMAJOR_AXIS,PERIOD,APOGEE,PERIGEE,DECAYED
55307.0,STARLINK-5288,PAYLOAD,2024-01-08 21:16:42,14.98333542,0.0002032,69.999,198.5111,275.5497,84.5431,3.8062e-05,3.61e-06,0.0,0 STARLINK-5288,1 55307U 23010AQ  24008.88660530  .00000361  00000-0  38062-4 0  9999,2 55307  69.9990 198.5111 0002032 275.5497  84.5431 14.98333542 55317,6950.182,96.107,573.459,570.635,0.0
55307.0,STARLINK-5288,PAYLOAD,2024-01-09 14:54:11,14.98331651,0.0002045,69.9992,196.66,275.8603,84.2323,4.5458e-05,4.5e-06,0.0,0 STARLINK-5288,1 55307U 23010AQ  24009.62096546  .00000450  00000-0  45458-4 0  9998,2 55307  69.9992 196.6600 0002045 275.8603  84.2323 14.98331651 55425,6950.188,96.107,573.474,570.631,0.0
55307.0,STARLINK-5288,PAYLOAD,2024-01-09 19:42:35,14.98331786,0.0002037,69.9993,196.1551,276.1194,83.9733,4.6101e-05,4.57e-06,0.0,0 STARLINK-5288,1 55307U 23010AQ  24009.82124520  .00000457  00000-0  46101-4 0  9997,2 55307  69.9993 196.1551 0002037 276.1194  83.9733 14.98331786 55134,6950.187,96.107,573.468,570.637,0.0
55307.0,STARLINK-5288,PAYLOAD,2024-01-09 21:18:43,14.98331492,0.0002042,69.9993,195.9867,276.3261,83.7665,4.1322e-05,4e-06,0.0,0 STARLINK-5288,1 55307U 23010AQ  24009.88800540  .00000400  00000-0  41322-4 0  9994,2 55307  69.9993 195.9867 0002042 276.3261  83.7665 14.98331492 55466,6950.188,96.107,573.473,570.634,0.0
55307.0,STARLINK-5288,PAYLOAD,2024-01-10 11:43:56,14.98332001,0.000197,69.9995,194.472,272.4894,87.6039,2.4305e-05,1.97e-06,0.0,0 STARLINK-5288,1 55307U 23010AQ  24010.48884483  .00000197  00000-0  24305-4 0  9995,2 55307  69.9995 194.4720 0001970 272.4894  87.6039 14.98332001 55553,6950.187,96.107,573.421,570.683,0.0
55307.0,STARLINK-5288,PAYLOAD,2024-01-10 21:20:44,14.98331805,0.0001994,69.9996,193.4621,272.4829,87.6102,2.0131e-05,1.47e-06,0.0,0 STARLINK-5288,1 55307U 23010AQ  24010.88940486  .00000147  00000-0  20131-4 0  9993,2 55307  69.9996 193.4621 0001994 272.4829  87.6102 14.98331805 55290,6950.187,96.107,573.438,570.666,0.0
55307.0,STARLINK-5288,PAYLOAD,2024-01-11 14:58:13,14.98330245,0.0001991,69.9997,191.6108,271.0692,89.0239,3.0239e-05,2.68e-06,0.0,0 STARLINK-5288,1 55307U 23010AQ  24011.62376510  .00000268  00000-0  30239-4 0  9991,2 55307  69.9997 191.6108 0001991 271.0692  89.0239 14.98330245 55723,6950.192,96.107,573.441,570.673,0.0
55307.0,STARLINK-5288,PAYLOAD,2024-01-11 21:22:45,14.98329971,0.0002099,69.9994,190.937,276.9674,83.1246,1.7496e-05,1.16e-06,0.0,0 STARLINK-5288,1 55307U 23010AQ  24011.89080581  .00000116  00000-0  17496-4 0  9992,2 55307  69.9994 190.9370 0002099 276.9674  83.1246 14.98329971 55768,6950.193,96.107,573.517,570.599,0.0
55307.0,STARLINK-5288,PAYLOAD,2024-01-12 13:24:06,14.98328371,0.0002111,69.9994,189.2535,274.6356,85.4562,1.5716e-05,9.5e-07,0.0,0 STARLINK-5288,1 55307U 23010AQ  24012.55840752  .00000095  00000-0  15716-4 0  9999,2 55307  69.9994 189.2535 0002111 274.6356  85.4562 14.98328371 55869,6950.198,96.107,573.53,570.596,0.0
55307.0,STARLINK-5288,PAYLOAD,2024-01-12 21:24:46,14.98328404,0.0002133,69.9996,188.4121,275.3335,84.758,1.3367e-05,6.7e-07,0.0,0 STARLINK-5288,1 55307U 23010AQ  24012.89220789  .00000067  00000-0  13367-4 0  9997,2 55307  69.9996 188.4121 0002133 275.3335  84.7580 14.98328404 55917,6950.198,96.107,573.545,570.58,0.0
55307.0,STARLINK-5288,PAYLOAD,2024-01-13 13:26:06,14.98333584,0.0002221,69.9994,186.729,275.9918,84.0987,8.003e-05,8.62e-06,0.0,0 STARLINK-5288,1 55307U 23010AQ  24013.55980318  .00000862  00000-0  80030-4 0  9996,2 55307  69.9994 186.7290 0002221 275.9918  84.0987 14.98333584 56015,6950.182,96.107,573.59,570.503,0.0
55307.0,STARLINK-5288,PAYLOAD,2024-01-13 19:50:39,14.98335166,0.0002214,69.9996,186.0561,276.2639,83.8267,9.5779e-05,1.05e-05,0.0,0 STARLINK-5288,1 55307U 23010AQ  24013.82684146  .00001050  00000-0  95779-4 0  9992,2 55307  69.9996 186.0561 0002214 276.2639  83.8267 14.98335166 55731,6950.177,96.107,573.581,570.503,0.0
55307.0,STARLINK-5288,PAYLOAD,2024-01-14 13:28:07,14.98331514,0.0002131,69.9999,184.2048,274.3774,85.7141,8.9813e-05,9.79e-06,0.0,0 STARLINK-5288,1 55307U 23010AQ  24014.56120322  .00000979  00000-0  89813-4 0  9996,2 55307  69.9999 184.2048 0002131 274.3774  85.7141 14.98331514 56164,6950.188,96.107,573.534,570.572,0.0
55307.0,STARLINK-5288,PAYLOAD,2024-01-14 19:52:40,14.98332694,0.0002137,70.0,183.5316,274.7954,85.2961,9.6495e-05,1.059e-05,0.0,0 STARLINK-5288,1 55307U 23010AQ  24014.82824222  .00001059  00000-0  96495-4 0  9999,2 55307  70.0000 183.5316 0002137 274.7954  85.2961 14.98332694 55883,6950.185,96.107,573.535,570.564,0.0
55307.0,STARLINK-5288,PAYLOAD,2024-01-14 21:28:48,14.983332,0.0002137,70.0,183.3634,274.8935,85.198,0.0001005,1.107e-05,0.0,0 STARLINK-5288,1 55307U 23010AQ  24014.89500179  .00001107  00000-0  10050-3 0  9994,2 55307  70.0000 183.3634 0002137 274.8935  85.1980 14.98333200 56216,6950.183,96.107,573.533,570.563,0.0
55307.0,STARLINK-5288,PAYLOAD,2024-01-15 13:30:08,14.98332397,0.0002091,70.0001,181.6803,274.8351,85.2569,-3.3986e-07,-9.7e-07,0.0,0 STARLINK-5288,1 55307U 23010AQ  24015.56260327 -.00000097  00000-0 -33986-6 0  9992,2 55307  70.0001 181.6803 0002091 274.8351  85.2569 14.98332397 56318,6950.185,96.107,573.504,570.597,0.0
55307.0,STARLINK-5288,PAYLOAD,2024-01-15 19:54:41,14.98331955,0.0002114,70.0003,181.0073,277.0848,83.007,-8.6765e-06,-1.96e-06,0.0,0 STARLINK-5288,1 55307U 23010AQ  24015.82964321 -.00000196  00000-0 -86765-5 0  9998,2 55307  70.0003 181.0073 0002114 277.0848  83.0070 14.98331955 56351,6950.187,96.107,573.521,570.583,0.0
55307.0,STARLINK-5288,PAYLOAD,2024-01-16 13:32:09,14.98344972,0.0002299,70.0002,179.1563,276.3963,83.6934,-0.00021096,-2.61e-05,0.0,0 STARLINK-5288,1 55307U 23010AQ  24016.56399939 -.00002610  00000-0 -21096-3 0  9994,2 55307  70.0002 179.1563 0002299 276.3963  83.6934 14.98344972 56466,6950.147,96.106,573.609,570.414,0.0
55307.0,STARLINK-5288,PAYLOAD,2024-01-16 19:56:41,14.98331822,0.000222,70.0002,178.4826,274.6264,85.4641,2.0743e-05,1.55e-06,0.0,0 STARLINK-5288,1 55307U 23010AQ  24016.83104104  .00000155  00000-0  20743-4 0  9991,2 55307  70.0002 178.4826 0002220 274.6264  85.4641 14.98331822 56183,6950.187,96.107,573.595,570.509,0.0
55307.0,STARLINK-5288,PAYLOAD,2024-01-16 21:32:49,14.98335041,0.0002434,69.9998,178.3139,277.9363,82.1519,6.5631e-05,6.9e-06,0.0,0 STARLINK-5288,1 55307U 23010AQ  24016.89779763  .00000690  00000-0  65631-4 0  9995,2 55307  69.9998 178.3139 0002434 277.9363  82.1519 14.98335041 56515,6950.177,96.107,573.734,570.351,0.0
55307.0,STARLINK-5288,PAYLOAD,2024-01-17 15:10:18,14.98328717,0.0001944,70.0012,176.4647,257.3968,102.6974,8.0428e-05,8.67e-06,0.0,0 STARLINK-5288,1 55307U 23010AQ  24017.63216129  .00000867  00000-0  80428-4 0  9997,2 55307  70.0012 176.4647 0001944 257.3968 102.6974 14.98328717 56623,6950.197,96.107,573.413,570.711,0.0
55307.0,STARLINK-5288,PAYLOAD,2024-01-17 18:22:35,14.9832723,0.000218,70.0011,176.1279,265.1109,94.9801,4.5082e-05,4.45e-06,0.0,0 STARLINK-5288,1 55307U 23010AQ  24017.76568332  .00000445  00000-0  45082-4 0  9996,2 55307  70.0011 176.1279 0002180 265.1109  94.9801 14.98327230 56640,6950.201,96.107,573.582,570.551,0.0
55307.0,STARLINK-5288,PAYLOAD,2024-01-18 12:00:03,14.98327318,0.0002365,69.9999,174.2745,272.9331,87.1557,1.0405e-05,3.1e-07,0.0,0 STARLINK-5288,1 55307U 23010AQ  24018.50004513  .00000031  00000-0  10405-4 0  9997,2 55307  69.9999 174.2745 0002365 272.9331  87.1557 14.98327318 56433,6950.201,96.107,573.71,570.422,0.0
55307.0,STARLINK-5288,PAYLOAD,2024-01-18 13:36:12,14.983265,0.0002424,69.9997,174.1061,274.0372,86.0509,-1.1601e-06,-1.07e-06,0.0,0 STARLINK-5288,1 55307U 23010AQ  24018.56680607 -.00000107  00000-0 -11601-5 0  9993,2 55307  69.9997 174.1061 0002424 274.0372  86.0509 14.98326500 56768,6950.204,96.107,573.753,570.384,0.0
55307.0,STARLINK-5288,PAYLOAD,2024-01-18 20:00:44,14.98325764,0.0002283,70.0003,173.4336,269.7388,90.351,6.884e-06,-1.1e-07,0.0,0 STARLINK-5288,1 55307U 23010AQ  24018.83384697 -.00000011  00000-0  68840-5 0  9993,2 55307  70.0003 173.4336 0002283 269.7388  90.3510 14.98325764 56803,6950.206,96.107,573.658,570.484,0.0
55307.0,STARLINK-5288,PAYLOAD,2024-01-19 12:02:04,14.98333964,0.0002591,69.9997,171.7488,275.364,84.7224,8.3626e-05,9.05e-06,0.0,0 STARLINK-5288,1 55307U 23010AQ  24019.50143986  .00000905  00000-0  83626-4 0  9991,2 55307  69.9997 171.7488 0002591 275.3640  84.7224 14.98333964 56582,6950.181,96.107,573.846,570.245,0.0
55307.0,STARLINK-5288,PAYLOAD,2024-01-19 13:38:12,14.98334092,0.000259,69.9997,171.5805,275.3027,84.7837,8.3433e-05,9.03e-06,0.0,0 STARLINK-5288,1 55307U 23010AQ  24019.56819951  .00000903  00000-0  83433-4 0  9993,2 55307  69.9997 171.5805 0002590 275.3027  84.7837 14.98334092 56911,6950.18,96.107,573.845,570.245,0.0
55307.0,STARLINK-5288,PAYLOAD,2024-01-19 20:02:44,14.9833877,0.0002486,70.0001,170.9077,272.4238,87.6636,0.00013282,1.493e-05,0.0,0 STARLINK-5288,1 55307U 23010AQ  24019.83523449  .00001493  00000-0  13282-3 0  9996,2 55307  70.0001 170.9077 0002486 272.4238  87.6636 14.98338770 56950,6950.166,96.106,573.759,570.303,0.0
55307.0,STARLINK-5288,PAYLOAD,2024-01-20 12:04:05,14.98326491,0.0001941,70.0017,169.2257,251.6792,108.4156,6.8614e-05,7.26e-06,0.0,0 STARLINK-5288,1 55307U 23010AQ  24020.50284368  .00000726  00000-0  68614-4 0  9994,2 55307  70.0017 169.2257 0001941 251.6792 108.4156 14.98326491 56739,6950.204,96.107,573.418,570.72,0.0
55307.0,STARLINK-5288,PAYLOAD,2024-01-20 13:40:13,14.98326266,0.0001982,70.0016,169.0575,251.6656,108.4287,5.8228e-05,6.02e-06,0.0,0 STARLINK-5288,1 55307U 23010AQ  24020.56960417  .00000602  00000-0  58228-4 0  9999,2 55307  70.0016 169.0575 0001982 251.6656 108.4287 14.98326266 57065,6950.204,96.107,573.447,570.692,0.0
